NORAD_CAT_ID,OBJECT_NAME,OBJECT_TYPE,EPOCH,MEAN_MOTION,ECCENTRICITY,INCLINATION,RA_OF_ASC_NODE,ARG_OF_PERICENTER,MEAN_ANOMALY,BSTAR,MEAN_MOTION_DOT,MEAN_MOTION_DDOT,TLE_LINE0,TLE_LINE1,TLE_LINE2,SEMIMAJOR_AXIS,PERIOD,APOGEE,PERIGEE,DECAYED
53923.0,STARLINK-5004,PAYLOAD,2024-03-04 03:15:23,15.08851977,0.0001514,53.218,15.9803,90.6539,269.4627,3.8703e-05,3.28e-06,0.0,0 STARLINK-5004,1 53923U 22119AP  24064.13568471  .00000328  00000-0  38703-4 0  9996,2 53923  53.2180  15.9803 0001514  90.6539 269.4627 15.08851977 80366,6917.844,95.437,540.756,538.661,0.0
53923.0,STARLINK-5004,PAYLOAD,2024-03-04 06:26:08,15.0885605,0.0001774,53.2195,15.38,107.3315,252.7871,8.6252e-05,1.085e-05,0.0,0 STARLINK-5004,1 53923U 22119AP  24064.26815842  .00001085  00000-0  86252-4 0  9990,2 53923  53.2195  15.3800 0001774 107.3315 252.7871 15.08856050 80801,6917.831,95.437,540.924,538.469,0.0
53923.0,STARLINK-5004,PAYLOAD,2024-03-05 01:30:47,15.08837529,0.0001998,53.2191,11.8078,125.6026,234.5152,2.1448e-05,5.3e-07,0.0,0 STARLINK-5004,1 53923U 22119AP  24065.06304935  .00000053  00000-0  21448-4 0  9995,2 53923  53.2191  11.8078 0001998 125.6026 234.5152 15.08837529 80502,6917.888,95.438,541.135,538.371,0.0
53923.0,STARLINK-5004,PAYLOAD,2024-03-05 06:16:56,15.08838795,0.0001641,53.2195,10.9183,107.5705,252.5466,4.6795e-05,4.57e-06,0.0,0 STARLINK-5004,1 53923U 22119AP  24065.26176965  .00000457  00000-0  46795-4 0  9997,2 53923  53.2195  10.9183 0001641 107.5705 252.5466 15.08838795 80954,6917.884,95.438,540.884,538.614,0.0
53923.0,STARLINK-5004,PAYLOAD,2024-03-06 02:56:57,15.08843405,0.0001356,53.2189,7.054,109.518,250.5959,-5.0169e-05,-1.086e-05,0.0,0 STARLINK-5004,1 53923U 22119AP  24066.12289175 -.00001086  00000-0 -50169-4 0  9992,2 53923  53.2189   7.0540 0001356 109.5180 250.5959 15.08843405 80660,6917.87,95.437,540.673,538.797,0.0
53923.0,STARLINK-5004,PAYLOAD,2024-03-07 12:20:02,15.08859237,0.0001254,53.2204,0.8135,91.9804,268.1332,0.00016249,2.3e-05,0.0,0 STARLINK-5004,1 53923U 22119AP  24067.51391537  .00002300  00000-0  16249-3 0  9990,2 53923  53.2204   0.8135 0001254  91.9804 268.1332 15.08859237 81293,6917.822,95.436,540.554,538.819,0.0
53923.0,STARLINK-5004,PAYLOAD,2024-03-08 01:03:09,15.08827781,0.0001513,53.2203,358.4357,96.6363,263.4801,-2.7698e-05,-7.29e-06,0.0,0 STARLINK-5004,1 53923U 22119AP  24068.04386462 -.00000729  00000-0 -27698-4 0  9996,2 53923  53.2203 358.4357 0001513  96.6363 263.4801 15.08827781 80950,6917.918,95.438,540.829,538.736,0.0
53923.0,STARLINK-5004,PAYLOAD,2024-03-08 12:10:50,15.08843586,0.0001322,53.2194,356.3532,86.5383,273.576,0.00010692,1.414e-05,0.0,0 STARLINK-5004,1 53923U 22119AP  24068.50753203  .00001414  00000-0  10692-3 0  9993,2 53923  53.2194 356.3532 0001322  86.5383 273.5760 15.08843586 81441,6917.869,95.437,540.649,538.82,0.0
53923.0,STARLINK-5004,PAYLOAD,2024-03-09 04:04:43,15.08835839,0.000132,53.2191,353.3786,79.7902,280.3239,-6.9148e-05,-1.388e-05,0.0,0 STARLINK-5004,1 53923U 22119AP  24069.16994421 -.00001388  00000-0 -69148-4 0  9998,2 53923  53.2191 353.3786 0001320  79.7902 280.3239 15.08835839 81129,6917.893,95.438,540.671,538.845,0.0
53923.0,STARLINK-5004,PAYLOAD,2024-03-09 12:01:37,15.08849796,0.0001354,53.2194,351.8928,84.9346,275.1801,3.8191e-05,3.2e-06,0.0,0 STARLINK-5004,1 53923U 22119AP  24069.50113194  .00000320  00000-0  38191-4 0  9993,2 53923  53.2194 351.8928 0001354  84.9346 275.1801 15.08849796 81595,6917.85,95.437,540.652,538.779,0.0
53923.0,STARLINK-5004,PAYLOAD,2024-03-10 03:55:29,15.08844392,0.0001366,53.2193,348.9177,106.3874,253.7268,0.00013846,1.917e-05,0.0,0 STARLINK-5004,1 53923U 22119AP  24070.16353466  .00001917  00000-0  13846-3 0  9997,2 53923  53.2193 348.9177 0001366 106.3874 253.7268 15.08844392 81276,6917.867,95.437,540.677,538.787,0.0
53923.0,STARLINK-5004,PAYLOAD,2024-03-10 23:00:07,15.08837351,0.0001583,53.2198,345.3472,88.6081,271.5093,0.00013971,1.936e-05,0.0,0 STARLINK-5004,1 53923U 22119AP  24070.95841829  .00001936  00000-0  13971-3 0  9999,2 53923  53.2198 345.3472 0001583  88.6081 271.5093 15.08837351 81814,6917.888,95.438,540.849,538.658,0.0
53923.0,STARLINK-5004,PAYLOAD,2024-03-11 03:46:16,15.08838781,0.0001594,53.2201,344.4558,84.4364,275.681,6.4073e-05,7.32e-06,0.0,0 STARLINK-5004,1 53923U 22119AP  24071.15714003  .00000732  00000-0  64073-4 0  9998,2 53923  53.2201 344.4558 0001594  84.4364 275.6810 15.08838781 81421,6917.884,95.438,540.852,538.646,0.0
53923.0,STARLINK-5004,PAYLOAD,2024-03-11 11:43:12,15.08843116,0.0001553,53.2202,342.9697,91.801,268.316,5.3346e-05,5.61e-06,0.0,0 STARLINK-5004,1 53923U 22119AP  24071.48833666  .00000561  00000-0  53346-4 0  9992,2 53923  53.2202 342.9697 0001553  91.8010 268.3160 15.08843116 81890,6917.871,95.437,540.81,538.662,0.0
53923.0,STARLINK-5004,PAYLOAD,2024-03-12 03:37:04,15.0880748,0.000155,53.22,339.9946,112.7311,247.3845,0.00034552,5.21e-05,0.0,0 STARLINK-5004,1 53923U 22119AP  24072.15074819  .00005210  00000-0  34552-3 0  9997,2 53923  53.2200 339.9946 0001550 112.7311 247.3845 15.08807480 81571,6917.98,95.44,540.917,538.773,0.0
53923.0,STARLINK-5004,PAYLOAD,2024-03-12 17:55:32,15.08835942,0.0001639,53.221,337.318,123.5774,236.5375,5.6342e-05,6.09e-06,0.0,0 STARLINK-5004,1 53923U 22119AP  24072.74690012  .00000609  00000-0  56342-4 0  9990,2 53923  53.2210 337.3180 0001639 123.5774 236.5375 15.08835942 82084,6917.893,95.438,540.892,538.624,0.0
53923.0,STARLINK-5004,PAYLOAD,2024-03-13 03:27:50,15.08841293,0.000147,53.2198,335.537,90.6004,269.5157,6.8156e-05,7.97e-06,0.0,0 STARLINK-5004,1 53923U 22119AP  24073.14433885  .00000797  00000-0  68156-4 0  9992,2 53923  53.2198 335.5370 0001470  90.6004 269.5157 15.08841293 81723,6917.876,95.437,540.758,538.725,0.0
53923.0,STARLINK-5004,PAYLOAD,2024-03-13 22:32:29,15.08833023,0.0001607,53.2201,331.9689,89.1825,270.9351,9.9694e-05,1.299e-05,0.0,0 STARLINK-5004,1 53923U 22119AP  24073.93922570  .00001299  00000-0  99694-4 0  9992,2 53923  53.2201 331.9689 0001607  89.1825 270.9351 15.08833023 82261,6917.902,95.438,540.878,538.655,0.0
53923.0,STARLINK-5004,PAYLOAD,2024-03-14 09:40:10,15.08842868,0.000161,53.2201,329.8872,88.3171,271.8006,9.5757e-05,1.236e-05,0.0,0 STARLINK-5004,1 53923U 22119AP  24074.40290006  .00001236  00000-0  95757-4 0  9994,2 53923  53.2201 329.8872 0001610  88.3171 271.8006 15.08842868 81915,6917.872,95.437,540.85,538.623,0.0
53923.0,STARLINK-5004,PAYLOAD,2024-03-14 20:47:53,15.08828511,0.0001294,53.2178,327.8039,78.0057,282.1081,-6.5656e-05,-1.332e-05,0.0,0 STARLINK-5004,1 53923U 22119AP  24074.86659434 -.00001332  00000-0 -65656-4 0  9992,2 53923  53.2178 327.8039 0001294  78.0057 282.1081 15.08828511 81982,6917.916,95.438,540.676,538.885,0.0
53923.0,STARLINK-5004,PAYLOAD,2024-03-14 22:23:16,15.08830046,0.0001338,53.2179,327.5069,81.3644,278.75,-5.2649e-05,-1.125e-05,0.0,0 STARLINK-5004,1 53923U 22119AP  24074.93283328 -.00001125  00000-0 -52649-4 0  9993,2 53923  53.2179 327.5069 0001338  81.3644 278.7500 15.08830046 82413,6917.911,95.438,540.701,538.85,0.0
53923.0,STARLINK-5004,PAYLOAD,2024-03-14 23:58:39,15.08832629,0.0001486,53.2188,327.2115,91.0488,269.0674,-2.8162e-05,-7.36e-06,0.0,0 STARLINK-5004,1 53923U 22119AP  24074.99907126 -.00000736  00000-0 -28162-4 0  9998,2 53923  53.2188 327.2115 0001486  91.0488 269.0674 15.08832629 82009,6917.903,95.438,540.796,538.74,0.0
53923.0,STARLINK-5004,PAYLOAD,2024-03-15 22:14:02,15.08881857,0.0001125,53.2185,323.0519,103.5105,256.6013,-0.00053445,-8.793e-05,0.0,0 STARLINK-5004,1 53923U 22119AP  24075.92642213 -.00008793  00000-0 -53445-3 0  9997,2 53923  53.2185 323.0519 0001125 103.5105 256.6013 15.08881857 82560,6917.752,95.435,540.396,538.839,0.0
53923.0,STARLINK-5004,PAYLOAD,2024-03-15 23:49:25,15.08883483,0.0001096,53.2183,322.7535,108.7227,251.3884,-0.00056521,-9.283e-05,0.0,0 STARLINK-5004,1 53923U 22119AP  24075.99266004 -.00009283  00000-0 -56521-3 0  9997,2 53923  53.2183 322.7535 0001096 108.7227 251.3884 15.08883483 82151,6917.747,95.435,540.371,538.854,0.0
53923.0,STARLINK-5004,PAYLOAD,2024-03-16 20:29:27,15.08832562,0.000129,53.2182,318.8878,97.6537,262.4602,0.000114,1.527e-05,0.0,0 STARLINK-5004,1 53923U 22119AP  24076.85379266  .00001527  00000-0  11400-3 0  9996,2 53923  53.2182 318.8878 0001290  97.6537 262.4602 15.08832562 82289,6917.903,95.438,540.661,538.876,0.0
53923.0,STARLINK-5004,PAYLOAD,2024-03-16 22:04:50,15.08837533,0.0001189,53.2175,318.5912,96.5628,263.55,7.2983e-05,8.74e-06,0.0,0 STARLINK-5004,1 53923U 22119AP  24076.92003114  .00000874  00000-0  72983-4 0  9998,2 53923  53.2175 318.5912 0001189  96.5628 263.5500 15.08837533 82713,6917.888,95.438,540.575,538.93,0.0
53923.0,STARLINK-5004,PAYLOAD,2024-03-16 23:40:13,15.08837617,0.0001213,53.2176,318.2949,100.737,259.3758,7.3675e-05,8.85e-06,0.0,0 STARLINK-5004,1 53923U 22119AP  24076.98627116  .00000885  00000-0  73675-4 0  9999,2 53923  53.2176 318.2949 0001213 100.7370 259.3758 15.08837617 82723,6917.888,95.438,540.592,538.914,0.0
53923.0,STARLINK-5004,PAYLOAD,2024-03-17 20:20:14,15.08842784,0.000135,53.2182,314.4256,81.454,278.6605,0.00010691,1.414e-05,0.0,0 STARLINK-5004,1 53923U 22119AP  24077.84738770  .00001414  00000-0  10691-3 0  9991,2 53923  53.2182 314.4256 0001350  81.4540 278.6605 15.08842784 82439,6917.872,95.437,540.671,538.803,0.0
53923.0,STARLINK-5004,PAYLOAD,2024-03-17 21:55:37,15.08844139,0.000144,53.2181,314.1283,76.0795,284.0357,0.00011482,1.54e-05,0.0,0 STARLINK-5004,1 53923U 22119AP  24077.91362711  .00001540  00000-0  11482-3 0  9996,2 53923  53.2181 314.1283 0001440  76.0795 284.0357 15.08844139 82865,6917.868,95.437,540.729,538.737,0.0
53923.0,STARLINK-5004,PAYLOAD,2024-03-18 01:06:23,15.08848233,0.0001406,53.2181,313.5322,80.4937,279.6214,0.0001455,2.029e-05,0.0,0 STARLINK-5004,1 53923U 22119AP  24078.04610306  .00002029  00000-0  14550-3 0  9999,2 53923  53.2181 313.5322 0001406  80.4937 279.6214 15.08848233 82884,6917.855,95.437,540.693,538.748,0.0
